{
  "type": "FeatureCollection",
  "features": [
    {
      "type": "Feature",
      "properties": {
        "norad_id": 28890,
        "name": "BEIJING 1",
        "group": "dmc",
        "lat": -57.64816640337282,
        "lon": 124.1734961001648,
        "alt_km": 698.6675617658348,
        "timestamp": "2025-12-09T09:46:47.313674+00:00",
        "meta_object_name": "BEIJING 1",
        "meta_object_id": "2005-043A",
        "meta_epoch": "2025-12-08T22:33:38.653344",
        "meta_mean_motion": 14.63361052,
        "meta_eccentricity": 0.00150624,
        "meta_inclination": 98.2656,
        "meta_ra_of_asc_node": 110.4381,
        "meta_arg_of_pericenter": 152.5706,
        "meta_mean_anomaly": 207.6294,
        "meta_ephemeris_type": 0,
        "meta_classification_type": "U",
        "meta_norad_cat_id": 28890,
        "meta_element_set_no": 999,
        "meta_rev_at_epoch": 7282,
        "meta_bstar": 0.00017017557,
        "meta_mean_motion_dot": 8.32e-06,
        "meta_mean_motion_ddot": 0,
        "tle_line1": "1 28890U 05043A   25342.94003071  .00000832  00000+0  17018-3 0  9991",
        "tle_line2": "2 28890  98.2656 110.4381 0015062 152.5706 207.6294 14.63361052 72823"
      },
      "geometry": {
        "type": "Point",
        "coordinates": [
          124.1734961001648,
          -57.64816640337282
        ]
      }
    },
    {
      "type": "Feature",
      "properties": {
        "norad_id": 33320,
        "name": "HUANJING 1A (HJ-1A)",
        "group": "dmc",
        "lat": 82.30209660000116,
        "lon": -112.36590847768623,
        "alt_km": 601.0334844701483,
        "timestamp": "2025-12-09T09:46:47.313698+00:00",
        "meta_object_name": "HUANJING 1A (HJ-1A)",
        "meta_object_id": "2008-041A",
        "meta_epoch": "2025-12-09T04:31:25.695840",
        "meta_mean_motion": 14.83376348,
        "meta_eccentricity": 0.0020365,
        "meta_inclination": 97.654,
        "meta_ra_of_asc_node": 331.6349,
        "meta_arg_of_pericenter": 45.4668,
        "meta_mean_anomaly": 314.8206,
        "meta_ephemeris_type": 0,
        "meta_classification_type": "U",
        "meta_norad_cat_id": 33320,
        "meta_element_set_no": 999,
        "meta_rev_at_epoch": 93023,
        "meta_bstar": 0.00030716,
        "meta_mean_motion_dot": 2.477e-05,
        "meta_mean_motion_ddot": 0,
        "tle_line1": "1 33320U 08041A   25343.18849185  .00002477  00000+0  30716-3 0  9994",
        "tle_line2": "2 33320  97.6540 331.6349 0020365  45.4668 314.8206 14.83376348930230"
      },
      "geometry": {
        "type": "Point",
        "coordinates": [
          -112.36590847768623,
          82.30209660000116
        ]
      }
    },
    {
      "type": "Feature",
      "properties": {
        "norad_id": 33321,
        "name": "HUANJING 1B (HJ-1B)",
        "group": "dmc",
        "lat": -42.9275014267083,
        "lon": -17.277397524674573,
        "alt_km": 644.110950635044,
        "timestamp": "2025-12-09T09:46:47.313713+00:00",
        "meta_object_name": "HUANJING 1B (HJ-1B)",
        "meta_object_id": "2008-041B",
        "meta_epoch": "2025-12-09T05:07:01.255872",
        "meta_mean_motion": 14.82807974,
        "meta_eccentricity": 0.0038258,
        "meta_inclination": 97.6396,
        "meta_ra_of_asc_node": 335.365,
        "meta_arg_of_pericenter": 86.8036,
        "meta_mean_anomaly": 273.7555,
        "meta_ephemeris_type": 0,
        "meta_classification_type": "U",
        "meta_norad_cat_id": 33321,
        "meta_element_set_no": 999,
        "meta_rev_at_epoch": 93025,
        "meta_bstar": 0.00029206,
        "meta_mean_motion_dot": 2.341e-05,
        "meta_mean_motion_ddot": 0,
        "tle_line1": "1 33321U 08041B   25343.21320898  .00002341  00000+0  29206-3 0  9996",
        "tle_line2": "2 33321  97.6396 335.3650 0038258  86.8036 273.7555 14.82807974930259"
      },
      "geometry": {
        "type": "Point",
        "coordinates": [
          -17.277397524674573,
          -42.9275014267083
        ]
      }
    },
    {
      "type": "Feature",
      "properties": {
        "norad_id": 33446,
        "name": "YAOGAN-4",
        "group": "dmc",
        "lat": -49.528714498126746,
        "lon": 84.15156776904843,
        "alt_km": 630.2570641844213,
        "timestamp": "2025-12-09T09:46:47.313726+00:00",
        "meta_object_name": "YAOGAN-4",
        "meta_object_id": "2008-061A",
        "meta_epoch": "2025-12-08T19:47:11.729184",
        "meta_mean_motion": 14.82664885,
        "meta_eccentricity": 0.00139192,
        "meta_inclination": 97.9177,
        "meta_ra_of_asc_node": 272.962,
        "meta_arg_of_pericenter": 336.595,
        "meta_mean_anomaly": 23.4628,
        "meta_ephemeris_type": 0,
        "meta_classification_type": "U",
        "meta_norad_cat_id": 33446,
        "meta_element_set_no": 999,
        "meta_rev_at_epoch": 91745,
        "meta_bstar": 0.00038742009,
        "meta_mean_motion_dot": 3.075e-05,
        "meta_mean_motion_ddot": 0,
        "tle_line1": "1 33446U 08061A   25342.82444131  .00003075  00000+0  38742-3 0  9999",
        "tle_line2": "2 33446  97.9177 272.9620 0013919 336.5950  23.4628 14.82664885917457"
      },
      "geometry": {
        "type": "Point",
        "coordinates": [
          84.15156776904843,
          -49.528714498126746
        ]
      }
    },
    {
      "type": "Feature",
      "properties": {
        "norad_id": 35681,
        "name": "DEIMOS-1",
        "group": "dmc",
        "lat": 81.8288626930166,
        "lon": 34.908073209304774,
        "alt_km": 635.9878731866884,
        "timestamp": "2025-12-09T09:46:47.313738+00:00",
        "meta_object_name": "DEIMOS-1",
        "meta_object_id": "2009-041A",
        "meta_epoch": "2025-12-08T23:35:32.349120",
        "meta_mean_motion": 14.74944279,
        "meta_eccentricity": 0.00027139,
        "meta_inclination": 97.7145,
        "meta_ra_of_asc_node": 143.7609,
        "meta_arg_of_pericenter": 85.3579,
        "meta_mean_anomaly": 274.7941,
        "meta_ephemeris_type": 0,
        "meta_classification_type": "U",
        "meta_norad_cat_id": 35681,
        "meta_element_set_no": 999,
        "meta_rev_at_epoch": 87884,
        "meta_bstar": 0.00018870686,
        "meta_mean_motion_dot": 1.22e-05,
        "meta_mean_motion_ddot": 0,
        "tle_line1": "1 35681U 09041A   25342.98301330  .00001220  00000+0  18871-3 0  9992",
        "tle_line2": "2 35681  97.7145 143.7609 0002713  85.3579 274.7941 14.74944279878848"
      },
      "geometry": {
        "type": "Point",
        "coordinates": [
          34.908073209304774,
          81.8288626930166
        ]
      }
    },
    {
      "type": "Feature",
      "properties": {
        "norad_id": 35683,
        "name": "UK-DMC 2",
        "group": "dmc",
        "lat": 77.52019949813152,
        "lon": -22.9968496828586,
        "alt_km": 634.9961122665254,
        "timestamp": "2025-12-09T09:46:47.313750+00:00",
        "meta_object_name": "UK-DMC 2",
        "meta_object_id": "2009-041C",
        "meta_epoch": "2025-12-08T23:33:54.325728",
        "meta_mean_motion": 14.75608643,
        "meta_eccentricity": 0.00013526,
        "meta_inclination": 97.8563,
        "meta_ra_of_asc_node": 117.9908,
        "meta_arg_of_pericenter": 96.4562,
        "meta_mean_anomaly": 263.6801,
        "meta_ephemeris_type": 0,
        "meta_classification_type": "U",
        "meta_norad_cat_id": 35683,
        "meta_element_set_no": 999,
        "meta_rev_at_epoch": 87851,
        "meta_bstar": 0.00022320769,
        "meta_mean_motion_dot": 1.474e-05,
        "meta_mean_motion_ddot": 0,
        "tle_line1": "1 35683U 09041C   25342.98187877  .00001474  00000+0  22321-3 0  9998",
        "tle_line2": "2 35683  97.8563 117.9908 0001352  96.4562 263.6801 14.75608643878512"
      },
      "geometry": {
        "type": "Point",
        "coordinates": [
          -22.9968496828586,
          77.52019949813152
        ]
      }
    },
    {
      "type": "Feature",
      "properties": {
        "norad_id": 40715,
        "name": "DMC3-FM1",
        "group": "dmc",
        "lat": 30.742254243845803,
        "lon": -153.87570131094498,
        "alt_km": 608.7241406148332,
        "timestamp": "2025-12-09T09:46:47.313761+00:00",
        "meta_object_name": "DMC3-FM1",
        "meta_object_id": "2015-032A",
        "meta_epoch": "2025-12-09T04:47:25.866816",
        "meta_mean_motion": 14.85432727,
        "meta_eccentricity": 0.0004905,
        "meta_inclination": 97.669,
        "meta_ra_of_asc_node": 210.5207,
        "meta_arg_of_pericenter": 335.2765,
        "meta_mean_anomaly": 24.8215,
        "meta_ephemeris_type": 0,
        "meta_classification_type": "U",
        "meta_norad_cat_id": 40715,
        "meta_element_set_no": 999,
        "meta_rev_at_epoch": 56170,
        "meta_bstar": 0.00022077,
        "meta_mean_motion_dot": 1.851e-05,
        "meta_mean_motion_ddot": 0,
        "tle_line1": "1 40715U 15032A   25343.19960494  .00001851  00000+0  22077-3 0  9992",
        "tle_line2": "2 40715  97.6690 210.5207 0004905 335.2765  24.8215 14.85432727561706"
      },
      "geometry": {
        "type": "Point",
        "coordinates": [
          -153.87570131094498,
          30.742254243845803
        ]
      }
    },
    {
      "type": "Feature",
      "properties": {
        "norad_id": 40716,
        "name": "DMC3-FM2",
        "group": "dmc",
        "lat": -82.27863535789183,
        "lon": -63.8116162684399,
        "alt_km": 618.1406130371261,
        "timestamp": "2025-12-09T09:46:47.313772+00:00",
        "meta_object_name": "DMC3-FM2",
        "meta_object_id": "2015-032B",
        "meta_epoch": "2025-12-09T05:19:49.783872",
        "meta_mean_motion": 14.8543355,
        "meta_eccentricity": 0.0005643,
        "meta_inclination": 97.6748,
        "meta_ra_of_asc_node": 211.9839,
        "meta_arg_of_pericenter": 339.9223,
        "meta_mean_anomaly": 20.177,
        "meta_ephemeris_type": 0,
        "meta_classification_type": "U",
        "meta_norad_cat_id": 40716,
        "meta_element_set_no": 999,
        "meta_rev_at_epoch": 56170,
        "meta_bstar": 0.00015771,
        "meta_mean_motion_dot": 1.308e-05,
        "meta_mean_motion_ddot": 0,
        "tle_line1": "1 40716U 15032B   25343.22210398  .00001308  00000+0  15771-3 0  9998",
        "tle_line2": "2 40716  97.6748 211.9839 0005643 339.9223  20.1770 14.85433550561707"
      },
      "geometry": {
        "type": "Point",
        "coordinates": [
          -63.8116162684399,
          -82.27863535789183
        ]
      }
    },
    {
      "type": "Feature",
      "properties": {
        "norad_id": 40717,
        "name": "DMC3-FM3",
        "group": "dmc",
        "lat": 24.23353537519086,
        "lon": 37.275590357238364,
        "alt_km": 615.1997187997949,
        "timestamp": "2025-12-09T09:46:47.313783+00:00",
        "meta_object_name": "DMC3-FM3",
        "meta_object_id": "2015-032C",
        "meta_epoch": "2025-12-09T04:13:55.949664",
        "meta_mean_motion": 14.85421085,
        "meta_eccentricity": 0.000503,
        "meta_inclination": 97.6801,
        "meta_ra_of_asc_node": 213.5703,
        "meta_arg_of_pericenter": 341.5884,
        "meta_mean_anomaly": 18.5149,
        "meta_ephemeris_type": 0,
        "meta_classification_type": "U",
        "meta_norad_cat_id": 40717,
        "meta_element_set_no": 999,
        "meta_rev_at_epoch": 56170,
        "meta_bstar": 7.7163e-05,
        "meta_mean_motion_dot": 6.13e-06,
        "meta_mean_motion_ddot": 0,
        "tle_line1": "1 40717U 15032C   25343.17634201  .00000613  00000+0  77163-4 0  9998",
        "tle_line2": "2 40717  97.6801 213.5703 0005030 341.5884  18.5149 14.85421085561709"
      },
      "geometry": {
        "type": "Point",
        "coordinates": [
          37.275590357238364,
          24.23353537519086
        ]
      }
    }
  ]
}